{
"type": "FeatureCollection",
"name": "berk_gro_",
"crs": { "type": "name", "properties": { "name": "urn:ogc:def:crs:OGC:1.3:CRS84" } },
"features": [
{ "type": "Feature", "properties": { "company_business_name": "Alcatraz Market", "address": "Alcatraz Ave", "city": "Berkeley", "state_abbreviation": "CA", "zip_code": "94703", "primary_naics": "44511003", "primary_sic": "541105", "industry_description": "Grocers-Retail", "affiliated_orgs": "NA", "brands": "NA", "headquarters_name": "NA", "location_confidence": "High", "naics_industry_sector": "Retail Trade", "business_category": "Independent", "square_footage": "1500 - 2499", "employee_count": "1", "sales_volume": "276000", "corporate_parent_name": "NA", "query": "Alcatraz Market, Alcatraz Ave, Berkeley, CA, 94703", "formatted_address": "1601 Alcatraz Ave, Berkeley, CA 94703, United States", "latitude": "37.848276", "longitude": "-122.2757359", "place_id": "ChIJ2T_7OHt-hYARhdUx3Dz8zWs", "google_status": "OK", "match_status": "matched" }, "geometry": { "type": "Point", "coordinates": [ -122.2757359, 37.848276 ] } },
{ "type": "Feature", "properties": { "company_business_name": "Andronico's Community Markets", "address": "Solano Ave", "city": "Berkeley", "state_abbreviation": "CA", "zip_code": "94707", "primary_naics": "44511003", "primary_sic": "541105", "industry_description": "Grocers-Retail, Organic Foods & Services, Farm Markets, Bakers-Retail", "affiliated_orgs": "NA", "brands": "NA", "headquarters_name": "Safeway Inc", "location_confidence": "High", "naics_industry_sector": "Retail Trade", "business_category": "Branch", "square_footage": "100000+", "employee_count": "100", "sales_volume": "27561000", "corporate_parent_name": "Albertsons Companies", "query": "Andronico's Community Markets, Solano Ave, Berkeley, CA, 94707", "formatted_address": "1850 Solano Ave, Berkeley, CA 94707, United States", "latitude": "37.8911557", "longitude": "-122.2784985", "place_id": "ChIJvQbjzrJ-hYARB8pE2VdLL4I", "google_status": "OK", "match_status": "matched" }, "geometry": { "type": "Point", "coordinates": [ -122.2784985, 37.8911557 ] } },
{ "type": "Feature", "properties": { "company_business_name": "Andronico's Community Markets", "address": "Shattuck Ave", "city": "Berkeley", "state_abbreviation": "CA", "zip_code": "94709", "primary_naics": "44511003", "primary_sic": "541105", "industry_description": "Grocers-Retail, Organic Foods & Services, Farm Markets, Bakers-Retail", "affiliated_orgs": "NA", "brands": "NA", "headquarters_name": "Safeway Inc", "location_confidence": "High", "naics_industry_sector": "Retail Trade", "business_category": "Branch", "square_footage": "NA", "employee_count": "NA", "sales_volume": "NA", "corporate_parent_name": "Albertsons Companies", "query": "Andronico's Community Markets, Shattuck Ave, Berkeley, CA, 94709", "formatted_address": "1550 Shattuck Ave., Berkeley, CA 94709, United States", "latitude": "37.878766", "longitude": "-122.269894", "place_id": "ChIJ2ziPQaF-hYARJ2LYiKjJmww", "google_status": "OK", "match_status": "matched" }, "geometry": { "type": "Point", "coordinates": [ -122.269894, 37.878766 ] } },
{ "type": "Feature", "properties": { "company_business_name": "Andronico's Community Markets", "address": "Shattuck Ave", "city": "Berkeley", "state_abbreviation": "CA", "zip_code": "94709", "primary_naics": "44511003", "primary_sic": "541105", "industry_description": "Grocers-Retail, Caterers, Organic Foods & Services, Farm Markets, Bakers-Retail", "affiliated_orgs": "NA", "brands": "NA", "headquarters_name": "Safeway Inc", "location_confidence": "High", "naics_industry_sector": "Retail Trade", "business_category": "Branch", "square_footage": "100000+", "employee_count": "150", "sales_volume": "41341000", "corporate_parent_name": "Albertsons Companies", "query": "Andronico's Community Markets, Shattuck Ave, Berkeley, CA, 94709", "formatted_address": "1550 Shattuck Ave., Berkeley, CA 94709, United States", "latitude": "37.878766", "longitude": "-122.269894", "place_id": "ChIJ2ziPQaF-hYARJ2LYiKjJmww", "google_status": "OK", "match_status": "matched" }, "geometry": { "type": "Point", "coordinates": [ -122.269894, 37.878766 ] } },
{ "type": "Feature", "properties": { "company_business_name": "B N Foods USA LLC", "address": "Addison St", "city": "Berkeley", "state_abbreviation": "CA", "zip_code": "94704", "primary_naics": "44511003", "primary_sic": "541105", "industry_description": "Grocers-Retail", "affiliated_orgs": "NA", "brands": "NA", "headquarters_name": "NA", "location_confidence": "High", "naics_industry_sector": "Retail Trade", "business_category": "Independent", "square_footage": "2500 - 4999", "employee_count": "2", "sales_volume": "552000", "corporate_parent_name": "NA", "query": "B N Foods USA LLC, Addison St, Berkeley, CA, 94704", "formatted_address": "Addison St, Berkeley, CA 94704, USA", "latitude": "37.8710214", "longitude": "-122.2695224", "place_id": "EiNBZGRpc29uIFN0LCBCZXJrZWxleSwgQ0EgOTQ3MDQsIFVTQSIuKiwKFAoSCa-EVLSVfoWAEdQE0mhouQVIEhQKEgmTm2tDLnyFgBGeX0whtJ_ppQ", "google_status": "OK", "match_status": "matched" }, "geometry": { "type": "Point", "coordinates": [ -122.2695224, 37.8710214 ] } },
{ "type": "Feature", "properties": { "company_business_name": "Berkeley Bait & Tackle Shop", "address": "University Ave", "city": "Berkeley", "state_abbreviation": "CA", "zip_code": "94710", "primary_naics": "44511003", "primary_sic": "541105", "industry_description": "Grocers-Retail, Fishing Bait, Coffee & Tea", "affiliated_orgs": "NA", "brands": "NA", "headquarters_name": "NA", "location_confidence": "High", "naics_industry_sector": "Retail Trade", "business_category": "Independent", "square_footage": "1 - 1499", "employee_count": "2", "sales_volume": "552000", "corporate_parent_name": "NA", "query": "Berkeley Bait & Tackle Shop, University Ave, Berkeley, CA, 94710", "formatted_address": "225 University Ave, Berkeley, CA 94710, United States", "latitude": "37.86403809999999", "longitude": "-122.3133346", "place_id": "ChIJz0Fv8g9_hYAREcHu7mIx7tM", "google_status": "OK", "match_status": "matched" }, "geometry": { "type": "Point", "coordinates": [ -122.3133346, 37.864038099999988 ] } },
{ "type": "Feature", "properties": { "company_business_name": "Berkeley Bowl Marketplace", "address": "Oregon St", "city": "Berkeley", "state_abbreviation": "CA", "zip_code": "94703", "primary_naics": "44511003", "primary_sic": "541105", "industry_description": "Grocers-Retail, Shopping Service-Personal, Fruits & Vegetables & Produce-Retail, Food Specialties-Retail", "affiliated_orgs": "NA", "brands": "NA", "headquarters_name": "NA", "location_confidence": "High", "naics_industry_sector": "Retail Trade", "business_category": "Independent", "square_footage": "1500 - 2499", "employee_count": "8", "sales_volume": "2205000", "corporate_parent_name": "NA", "query": "Berkeley Bowl Marketplace, Oregon St, Berkeley, CA, 94703", "formatted_address": "2020 Oregon St, Berkeley, CA 94703, United States", "latitude": "37.857061", "longitude": "-122.267212", "place_id": "ChIJxRCJY4B-hYAR8pED77RBzRY", "google_status": "OK", "match_status": "matched" }, "geometry": { "type": "Point", "coordinates": [ -122.267212, 37.857061 ] } },
{ "type": "Feature", "properties": { "company_business_name": "Berkeley Bowl West", "address": "Heinz Ave", "city": "Berkeley", "state_abbreviation": "CA", "zip_code": "94710", "primary_naics": "44511003", "primary_sic": "541105", "industry_description": "Grocers-Retail, Fruits & Vegetables & Produce-Retail, Food Specialties-Retail", "affiliated_orgs": "NA", "brands": "NA", "headquarters_name": "NA", "location_confidence": "High", "naics_industry_sector": "Retail Trade", "business_category": "Independent", "square_footage": "1500 - 2499", "employee_count": "7", "sales_volume": "1930000", "corporate_parent_name": "NA", "query": "Berkeley Bowl West, Heinz Ave, Berkeley, CA, 94710", "formatted_address": "920 Heinz Ave, Berkeley, CA 94710, United States", "latitude": "37.8530665", "longitude": "-122.289946", "place_id": "ChIJP48a8_R-hYAR8ARqHbXRoOo", "google_status": "OK", "match_status": "matched" }, "geometry": { "type": "Point", "coordinates": [ -122.289946, 37.8530665 ] } },
{ "type": "Feature", "properties": { "company_business_name": "Berkeley Organic Market & Deli", "address": "Ashby Ave", "city": "Berkeley", "state_abbreviation": "CA", "zip_code": "94705", "primary_naics": "44511003", "primary_sic": "541105", "industry_description": "Grocers-Retail", "affiliated_orgs": "NA", "brands": "NA", "headquarters_name": "NA", "location_confidence": "High", "naics_industry_sector": "Retail Trade", "business_category": "Independent", "square_footage": "1500 - 2499", "employee_count": "2", "sales_volume": "552000", "corporate_parent_name": "NA", "query": "Berkeley Organic Market & Deli, Ashby Ave, Berkeley, CA, 94705", "formatted_address": "2642 Ashby Ave, Berkeley, CA 94705, United States", "latitude": "37.8567104", "longitude": "-122.2535354", "place_id": "ChIJSYnc3gp9hYAR-olIyI7EQbM", "google_status": "OK", "match_status": "matched" }, "geometry": { "type": "Point", "coordinates": [ -122.2535354, 37.8567104 ] } },
{ "type": "Feature", "properties": { "company_business_name": "Berkeley Student Food Collective", "address": "Bancroft Way", "city": "Berkeley", "state_abbreviation": "CA", "zip_code": "94704", "primary_naics": "44511003", "primary_sic": "541105", "industry_description": "Grocers-Retail, Non-Profit Organizations", "affiliated_orgs": "NA", "brands": "NA", "headquarters_name": "NA", "location_confidence": "High", "naics_industry_sector": "Retail Trade", "business_category": "Independent", "square_footage": "2500 - 4999", "employee_count": "1", "sales_volume": "276000", "corporate_parent_name": "NA", "query": "Berkeley Student Food Collective, Bancroft Way, Berkeley, CA, 94704", "formatted_address": "2440 Bancroft Way #102, Berkeley, CA 94704, United States", "latitude": "37.8684529", "longitude": "-122.2604611", "place_id": "ChIJM2NMHSZ8hYARVU8_rnrzR7Y", "google_status": "OK", "match_status": "matched" }, "geometry": { "type": "Point", "coordinates": [ -122.2604611, 37.8684529 ] } },
{ "type": "Feature", "properties": { "company_business_name": "Bombay Spice House", "address": "University Ave", "city": "Berkeley", "state_abbreviation": "CA", "zip_code": "94710", "primary_naics": "42399019", "primary_sic": "509905", "industry_description": "Importers (Whls), Grocers-Retail", "affiliated_orgs": "NA", "brands": "NA", "headquarters_name": "NA", "location_confidence": "High", "naics_industry_sector": "Wholesale Trade", "business_category": "Independent", "square_footage": "1 - 1499", "employee_count": "1", "sales_volume": "1004000", "corporate_parent_name": "NA", "query": "Bombay Spice House, University Ave, Berkeley, CA, 94710", "formatted_address": "1036 University Ave, Berkeley, CA 94710, United States", "latitude": "37.8686744", "longitude": "-122.2935539", "place_id": "ChIJyUY-9sF-hYARMVF9C2DrNDw", "google_status": "OK", "match_status": "matched" }, "geometry": { "type": "Point", "coordinates": [ -122.2935539, 37.8686744 ] } },
{ "type": "Feature", "properties": { "company_business_name": "Bombay Supermarket", "address": "University Ave", "city": "Berkeley", "state_abbreviation": "CA", "zip_code": "94710", "primary_naics": "44511003", "primary_sic": "541105", "industry_description": "Grocers-Retail", "affiliated_orgs": "NA", "brands": "NA", "headquarters_name": "NA", "location_confidence": "High", "naics_industry_sector": "Retail Trade", "business_category": "Independent", "square_footage": "1500 - 2499", "employee_count": "2", "sales_volume": "552000", "corporate_parent_name": "NA", "query": "Bombay Supermarket, University Ave, Berkeley, CA, 94710", "formatted_address": "1006 University Ave, Berkeley, CA 94710, United States", "latitude": "37.868589", "longitude": "-122.293987", "place_id": "ChIJFz1C3cF-hYARxOR0tx_gMj0", "google_status": "OK", "match_status": "matched" }, "geometry": { "type": "Point", "coordinates": [ -122.293987, 37.868589 ] } },
{ "type": "Feature", "properties": { "company_business_name": "Cedar Market", "address": "California St", "city": "Berkeley", "state_abbreviation": "CA", "zip_code": "94703", "primary_naics": "44511003", "primary_sic": "541105", "industry_description": "Grocers-Retail", "affiliated_orgs": "NA", "brands": "NA", "headquarters_name": "NA", "location_confidence": "High", "naics_industry_sector": "Retail Trade", "business_category": "Independent", "square_footage": "1 - 1499", "employee_count": "3", "sales_volume": "827000", "corporate_parent_name": "NA", "query": "Cedar Market, California St, Berkeley, CA, 94703", "formatted_address": "1601 California St, Berkeley, CA 94703, United States", "latitude": "37.8768547", "longitude": "-122.280321", "place_id": "ChIJ2WS4h7t-hYARXmDm8XGoaXQ", "google_status": "OK", "match_status": "matched" }, "geometry": { "type": "Point", "coordinates": [ -122.280321, 37.8768547 ] } },
{ "type": "Feature", "properties": { "company_business_name": "Derby Food Center", "address": "College Ave", "city": "Berkeley", "state_abbreviation": "CA", "zip_code": "94705", "primary_naics": "44511003", "primary_sic": "541105", "industry_description": "Grocers-Retail, Liquors-Retail", "affiliated_orgs": "NA", "brands": "NA", "headquarters_name": "NA", "location_confidence": "High", "naics_industry_sector": "Retail Trade", "business_category": "Independent", "square_footage": "1 - 1499", "employee_count": "2", "sales_volume": "552000", "corporate_parent_name": "NA", "query": "Derby Food Center, College Ave, Berkeley, CA, 94705", "formatted_address": "2707 College Ave, Berkeley, CA 94705, United States", "latitude": "37.8618073", "longitude": "-122.2532759", "place_id": "ChIJZ4kXpTJ8hYAReB29MAGyFs0", "google_status": "OK", "match_status": "matched" }, "geometry": { "type": "Point", "coordinates": [ -122.2532759, 37.8618073 ] } },
{ "type": "Feature", "properties": { "company_business_name": "Friendly Market", "address": "Berkeley Sq", "city": "Berkeley", "state_abbreviation": "CA", "zip_code": "94704", "primary_naics": "44511003", "primary_sic": "541105", "industry_description": "Grocers-Retail", "affiliated_orgs": "NA", "brands": "NA", "headquarters_name": "NA", "location_confidence": "High", "naics_industry_sector": "Retail Trade", "business_category": "Independent", "square_footage": "1500 - 2499", "employee_count": "2", "sales_volume": "552000", "corporate_parent_name": "NA", "query": "Friendly Market, Berkeley Sq, Berkeley, CA, 94704", "formatted_address": "127 Berkeley Sq, Berkeley, CA 94704, United States", "latitude": "37.8708607", "longitude": "-122.2678727", "place_id": "ChIJfZ641Z1-hYARCieGvPFPK6g", "google_status": "OK", "match_status": "matched" }, "geometry": { "type": "Point", "coordinates": [ -122.2678727, 37.8708607 ] } },
{ "type": "Feature", "properties": { "company_business_name": "Grabango Co", "address": "Bancroft Way", "city": "Berkeley", "state_abbreviation": "CA", "zip_code": "94704", "primary_naics": "51321005", "primary_sic": "737206", "industry_description": "Software/Application/Platform Publishing, Grocers-Retail", "affiliated_orgs": "NA", "brands": "NA", "headquarters_name": "NA", "location_confidence": "High", "naics_industry_sector": "Information", "business_category": "Independent", "square_footage": "20000 - 39999", "employee_count": "27", "sales_volume": "13893000", "corporate_parent_name": "NA", "query": "Grabango Co, Bancroft Way, Berkeley, CA, 94704", "formatted_address": "2105 Bancroft Way, Berkeley, CA 94704, United States", "latitude": "37.8678057", "longitude": "-122.2673024", "place_id": "ChIJDyYPAQp_hYAR-OLOSZWeKtM", "google_status": "OK", "match_status": "matched" }, "geometry": { "type": "Point", "coordinates": [ -122.2673024, 37.8678057 ] } },
{ "type": "Feature", "properties": { "company_business_name": "Halal Food Market", "address": "San Pablo Ave", "city": "Berkeley", "state_abbreviation": "CA", "zip_code": "94702", "primary_naics": "44524006", "primary_sic": "542107", "industry_description": "Meat-Retail, Grocers-Retail", "affiliated_orgs": "NA", "brands": "NA", "headquarters_name": "NA", "location_confidence": "High", "naics_industry_sector": "Retail Trade", "business_category": "Independent", "square_footage": "1 - 1499", "employee_count": "2", "sales_volume": "359000", "corporate_parent_name": "NA", "query": "Halal Food Market, San Pablo Ave, Berkeley, CA, 94702", "formatted_address": "1964 San Pablo Ave, Berkeley, CA 94702, United States", "latitude": "37.8697136", "longitude": "-122.2925756", "place_id": "ChIJHQJulsF-hYARkV_FmZ9Eh-U", "google_status": "OK", "match_status": "matched" }, "geometry": { "type": "Point", "coordinates": [ -122.2925756, 37.8697136 ] } },
{ "type": "Feature", "properties": { "company_business_name": "Holy Land Olive Oil", "address": "Domingo Ave 122", "city": "Berkeley", "state_abbreviation": "CA", "zip_code": "94705", "primary_naics": "44511003", "primary_sic": "541105", "industry_description": "Grocers-Retail", "affiliated_orgs": "NA", "brands": "NA", "headquarters_name": "NA", "location_confidence": "Medium", "naics_industry_sector": "Retail Trade", "business_category": "Independent", "square_footage": "1 - 1499", "employee_count": "2", "sales_volume": "552000", "corporate_parent_name": "NA", "query": "Holy Land Olive Oil, Domingo Ave 122, Berkeley, CA, 94705", "formatted_address": "2928 Domingo Ave, Berkeley, CA 94705, United States", "latitude": "37.85831719999999", "longitude": "-122.2440487", "place_id": "ChIJa_t78sl9hYARtB28lQeA8JY", "google_status": "OK", "match_status": "matched" }, "geometry": { "type": "Point", "coordinates": [ -122.2440487, 37.858317199999988 ] } },
{ "type": "Feature", "properties": { "company_business_name": "Humbowl", "address": "College Ave", "city": "Berkeley", "state_abbreviation": "CA", "zip_code": "94705", "primary_naics": "44511007", "primary_sic": "541108", "industry_description": "Grocers-Health Foods, Restaurants, Foods-Carry Out", "affiliated_orgs": "NA", "brands": "NA", "headquarters_name": "NA", "location_confidence": "High", "naics_industry_sector": "Retail Trade", "business_category": "Independent", "square_footage": "NA", "employee_count": "10", "sales_volume": "2757000", "corporate_parent_name": "NA", "query": "Humbowl, College Ave, Berkeley, CA, 94705", "formatted_address": "2975 College Ave, Berkeley, CA 94705, United States", "latitude": "37.8566809", "longitude": "-122.2529038", "place_id": "ChIJcS8udWV9hYARyIPTX6EP584", "google_status": "OK", "match_status": "matched" }, "geometry": { "type": "Point", "coordinates": [ -122.2529038, 37.8566809 ] } },
{ "type": "Feature", "properties": { "company_business_name": "Mi Terra Foods", "address": "San Pablo Ave", "city": "Berkeley", "state_abbreviation": "CA", "zip_code": "94702", "primary_naics": "44511003", "primary_sic": "541105", "industry_description": "Grocers-Retail", "affiliated_orgs": "NA", "brands": "NA", "headquarters_name": "NA", "location_confidence": "High", "naics_industry_sector": "Retail Trade", "business_category": "Independent", "square_footage": "1 - 1499", "employee_count": "10", "sales_volume": "2757000", "corporate_parent_name": "NA", "query": "Mi Terra Foods, San Pablo Ave, Berkeley, CA, 94702", "formatted_address": "2082 San Pablo Ave, Berkeley, CA 94702, United States", "latitude": "37.8679052", "longitude": "-122.2919415", "place_id": "ChIJXZ9Ocep-hYAR9uNLKNO-EOQ", "google_status": "OK", "match_status": "matched" }, "geometry": { "type": "Point", "coordinates": [ -122.2919415, 37.8679052 ] } },
{ "type": "Feature", "properties": { "company_business_name": "Milan International", "address": "University Ave", "city": "Berkeley", "state_abbreviation": "CA", "zip_code": "94710", "primary_naics": "44511003", "primary_sic": "541105", "industry_description": "Grocers-Retail", "affiliated_orgs": "NA", "brands": "NA", "headquarters_name": "NA", "location_confidence": "High", "naics_industry_sector": "Retail Trade", "business_category": "Independent", "square_footage": "1 - 1499", "employee_count": "2", "sales_volume": "552000", "corporate_parent_name": "NA", "query": "Milan International, University Ave, Berkeley, CA, 94710", "formatted_address": "990 University Ave, Berkeley, CA 94710, United States", "latitude": "37.8683875", "longitude": "-122.2945031", "place_id": "ChIJ56iKEMJ-hYARzx6z-NrERpQ", "google_status": "OK", "match_status": "matched" }, "geometry": { "type": "Point", "coordinates": [ -122.2945031, 37.8683875 ] } },
{ "type": "Feature", "properties": { "company_business_name": "Miranchito Bayside Market", "address": "San Pablo Ave", "city": "Berkeley", "state_abbreviation": "CA", "zip_code": "94702", "primary_naics": "44511003", "primary_sic": "541105", "industry_description": "Grocers-Retail", "affiliated_orgs": "NA", "brands": "NA", "headquarters_name": "NA", "location_confidence": "High", "naics_industry_sector": "Retail Trade", "business_category": "Independent", "square_footage": "1500 - 2499", "employee_count": "5", "sales_volume": "1379000", "corporate_parent_name": "NA", "query": "Miranchito Bayside Market, San Pablo Ave, Berkeley, CA, 94702", "formatted_address": "2032 San Pablo Ave, Berkeley, CA 94702, United States", "latitude": "37.8685502", "longitude": "-122.2921484", "place_id": "ChIJRZrC3sF-hYARe-LY5m1ZWVE", "google_status": "OK", "match_status": "matched" }, "geometry": { "type": "Point", "coordinates": [ -122.2921484, 37.8685502 ] } },
{ "type": "Feature", "properties": { "company_business_name": "Monterey Foods", "address": "Hopkins St", "city": "Berkeley", "state_abbreviation": "CA", "zip_code": "94707", "primary_naics": "42442005", "primary_sic": "514101", "industry_description": "Food Products (Whls), Grocers-Retail", "affiliated_orgs": "NA", "brands": "NA", "headquarters_name": "NA", "location_confidence": "High", "naics_industry_sector": "Wholesale Trade", "business_category": "Independent", "square_footage": "20000 - 39999", "employee_count": "35", "sales_volume": "63659000", "corporate_parent_name": "NA", "query": "Monterey Foods, Hopkins St, Berkeley, CA, 94707", "formatted_address": "1550 Hopkins St #2711, Berkeley, CA 94707, United States", "latitude": "37.8811336", "longitude": "-122.2822415", "place_id": "ChIJ9zuMsrB-hYARaZorcMduzQ0", "google_status": "OK", "match_status": "matched" }, "geometry": { "type": "Point", "coordinates": [ -122.2822415, 37.8811336 ] } },
{ "type": "Feature", "properties": { "company_business_name": "N & H Market", "address": "Adeline St", "city": "Berkeley", "state_abbreviation": "CA", "zip_code": "94703", "primary_naics": "44511003", "primary_sic": "541105", "industry_description": "Grocers-Retail", "affiliated_orgs": "NA", "brands": "NA", "headquarters_name": "NA", "location_confidence": "High", "naics_industry_sector": "Retail Trade", "business_category": "Independent", "square_footage": "1500 - 2499", "employee_count": "2", "sales_volume": "552000", "corporate_parent_name": "NA", "query": "N & H Market, Adeline St, Berkeley, CA, 94703", "formatted_address": "3198 Adeline St, Berkeley, CA 94703, United States", "latitude": "37.8507685", "longitude": "-122.2709839", "place_id": "ChIJa66QVXl-hYAR7PsI4aRrkrM", "google_status": "OK", "match_status": "matched" }, "geometry": { "type": "Point", "coordinates": [ -122.2709839, 37.8507685 ] } },
{ "type": "Feature", "properties": { "company_business_name": "Oceanville Market Delicatessen", "address": "6th St", "city": "Berkeley", "state_abbreviation": "CA", "zip_code": "94710", "primary_naics": "44511003", "primary_sic": "541105", "industry_description": "Grocers-Retail", "affiliated_orgs": "NA", "brands": "NA", "headquarters_name": "NA", "location_confidence": "High", "naics_industry_sector": "Retail Trade", "business_category": "Independent", "square_footage": "1500 - 2499", "employee_count": "1", "sales_volume": "276000", "corporate_parent_name": "NA", "query": "Oceanville Market Delicatessen, 6th St, Berkeley, CA, 94710", "formatted_address": "1807B Fourth St, Berkeley, CA 94710, United States", "latitude": "37.8698538", "longitude": "-122.3004775", "place_id": "ChIJHcgTu9x-hYARFAE26E5YU2Q", "google_status": "OK", "match_status": "matched" }, "geometry": { "type": "Point", "coordinates": [ -122.3004775, 37.8698538 ] } },
{ "type": "Feature", "properties": { "company_business_name": "Oori Foods LLC", "address": "Shattuck Ave", "city": "Berkeley", "state_abbreviation": "CA", "zip_code": "94704", "primary_naics": "44511003", "primary_sic": "541105", "industry_description": "Grocers-Retail", "affiliated_orgs": "NA", "brands": "NA", "headquarters_name": "NA", "location_confidence": "High", "naics_industry_sector": "Retail Trade", "business_category": "Independent", "square_footage": "NA", "employee_count": "33", "sales_volume": "9095000", "corporate_parent_name": "NA", "query": "Oori Foods LLC, Shattuck Ave, Berkeley, CA, 94704", "formatted_address": "2177 Shattuck Ave., Berkeley, CA 94704, United States", "latitude": "37.8698702", "longitude": "-122.267582", "place_id": "ChIJWSiJbQ9_hYAR71Mzqhw393w", "google_status": "OK", "match_status": "matched" }, "geometry": { "type": "Point", "coordinates": [ -122.267582, 37.8698702 ] } },
{ "type": "Feature", "properties": { "company_business_name": "Pasta Shop", "address": "4th St", "city": "Berkeley", "state_abbreviation": "CA", "zip_code": "94710", "primary_naics": "44529802", "primary_sic": "545103", "industry_description": "Cheese, Gourmet Shops, Grocers-Retail", "affiliated_orgs": "NA", "brands": "NA", "headquarters_name": "NA", "location_confidence": "High", "naics_industry_sector": "Retail Trade", "business_category": "Independent", "square_footage": "40000 - 99999", "employee_count": "70", "sales_volume": "5306000", "corporate_parent_name": "NA", "query": "Pasta Shop, 4th St, Berkeley, CA, 94710", "formatted_address": "1250 Addison St # 109, Berkeley, CA 94702, United States", "latitude": "37.8685572", "longitude": "-122.2870002", "place_id": "ChIJScWGP5V-hYAROrc08vA182g", "google_status": "OK", "match_status": "matched" }, "geometry": { "type": "Point", "coordinates": [ -122.2870002, 37.8685572 ] } },
{ "type": "Feature", "properties": { "company_business_name": "Phoenix Pastificio", "address": "Addison St", "city": "Berkeley", "state_abbreviation": "CA", "zip_code": "94702", "primary_naics": "31181102", "primary_sic": "546102", "industry_description": "Bakers-Retail, Food Products (Whls), Grocers-Ethnic Foods, Restaurants", "affiliated_orgs": "NA", "brands": "NA", "headquarters_name": "NA", "location_confidence": "High", "naics_industry_sector": "Manufacturing", "business_category": "Independent", "square_footage": "10000 - 19999", "employee_count": "15", "sales_volume": "1084000", "corporate_parent_name": "NA", "query": "Phoenix Pastificio, Addison St, Berkeley, CA, 94702", "formatted_address": "1250 Addison St # 109, Berkeley, CA 94702, United States", "latitude": "37.8685572", "longitude": "-122.2870002", "place_id": "ChIJScWGP5V-hYAROrc08vA182g", "google_status": "OK", "match_status": "matched" }, "geometry": { "type": "Point", "coordinates": [ -122.2870002, 37.8685572 ] } },
{ "type": "Feature", "properties": { "company_business_name": "Pyeong Chang Tofu", "address": "University Ave", "city": "Berkeley", "state_abbreviation": "CA", "zip_code": "94702", "primary_naics": "44511003", "primary_sic": "541105", "industry_description": "Grocers-Retail", "affiliated_orgs": "NA", "brands": "NA", "headquarters_name": "NA", "location_confidence": "High", "naics_industry_sector": "Retail Trade", "business_category": "Independent", "square_footage": "1500 - 2499", "employee_count": "3", "sales_volume": "827000", "corporate_parent_name": "NA", "query": "Pyeong Chang Tofu, University Ave, Berkeley, CA, 94702", "formatted_address": "1269 University Ave, Berkeley, CA 94702, United States", "latitude": "37.86991", "longitude": "-122.2875468", "place_id": "ChIJVXnqVxt_hYARhkJvVGvtnYI", "google_status": "OK", "match_status": "matched" }, "geometry": { "type": "Point", "coordinates": [ -122.2875468, 37.86991 ] } },
{ "type": "Feature", "properties": { "company_business_name": "Ripple Foods, PBC", "address": "Gilman St", "city": "Berkeley", "state_abbreviation": "CA", "zip_code": "94710", "primary_naics": "54171524", "primary_sic": "873317", "industry_description": "Physical Engineering & Life Sciences Research & Development, Grocers-Retail, Federal Government Contractors", "affiliated_orgs": "NA", "brands": "NA", "headquarters_name": "NA", "location_confidence": "High", "naics_industry_sector": "Professional, Scientific & Tech Services", "business_category": "Independent", "square_footage": "1 - 1499", "employee_count": "5", "sales_volume": "NA", "corporate_parent_name": "NA", "query": "Ripple Foods, PBC, Gilman St, Berkeley, CA, 94710", "formatted_address": "901 Gilman St Suite A, Berkeley, CA 94710, United States", "latitude": "37.8809742", "longitude": "-122.2999648", "place_id": "ChIJqybix0h_hYARKtznLJHyTHI", "google_status": "OK", "match_status": "matched" }, "geometry": { "type": "Point", "coordinates": [ -122.2999648, 37.8809742 ] } },
{ "type": "Feature", "properties": { "company_business_name": "Sacramento Market", "address": "Sacramento St", "city": "Berkeley", "state_abbreviation": "CA", "zip_code": "94702", "primary_naics": "44511003", "primary_sic": "541105", "industry_description": "Grocers-Retail", "affiliated_orgs": "NA", "brands": "NA", "headquarters_name": "NA", "location_confidence": "Medium", "naics_industry_sector": "Retail Trade", "business_category": "Independent", "square_footage": "1500 - 2499", "employee_count": "3", "sales_volume": "827000", "corporate_parent_name": "NA", "query": "Sacramento Market, Sacramento St, Berkeley, CA, 94702", "formatted_address": "2974 Sacramento St, Berkeley, CA 94702, United States", "latitude": "37.8536932", "longitude": "-122.2793605", "place_id": "ChIJrZS5LYh-hYARwE8I1ztIOsM", "google_status": "OK", "match_status": "matched" }, "geometry": { "type": "Point", "coordinates": [ -122.2793605, 37.8536932 ] } },
{ "type": "Feature", "properties": { "company_business_name": "Safeway", "address": "Shattuck Ave", "city": "Berkeley", "state_abbreviation": "CA", "zip_code": "94709", "primary_naics": "44511003", "primary_sic": "541105", "industry_description": "Grocers-Retail, Liquors-Retail, Florists-Retail, Organic Foods & Services, Farm Markets, Bakers-Retail", "affiliated_orgs": "NA", "brands": "NA", "headquarters_name": "Safeway Inc", "location_confidence": "High", "naics_industry_sector": "Retail Trade", "business_category": "Branch", "square_footage": "40000 - 99999", "employee_count": "100", "sales_volume": "27561000", "corporate_parent_name": "Albertsons Companies", "query": "Safeway, Shattuck Ave, Berkeley, CA, 94709", "formatted_address": "1444 Shattuck Pl, Berkeley, CA 94709, United States", "latitude": "37.8807907", "longitude": "-122.2700198", "place_id": "ChIJqYTWk6Z-hYARcn2Iv78nibM", "google_status": "OK", "match_status": "matched" }, "geometry": { "type": "Point", "coordinates": [ -122.2700198, 37.8807907 ] } },
{ "type": "Feature", "properties": { "company_business_name": "Seven Palms Food Center", "address": "Euclid Ave", "city": "Berkeley", "state_abbreviation": "CA", "zip_code": "94709", "primary_naics": "44511003", "primary_sic": "541105", "industry_description": "Grocers-Retail", "affiliated_orgs": "NA", "brands": "NA", "headquarters_name": "NA", "location_confidence": "High", "naics_industry_sector": "Retail Trade", "business_category": "Independent", "square_footage": "1 - 1499", "employee_count": "3", "sales_volume": "827000", "corporate_parent_name": "NA", "query": "Seven Palms Food Center, Euclid Ave, Berkeley, CA, 94709", "formatted_address": "1801 Euclid Ave, Berkeley, CA 94709, United States", "latitude": "37.8759146", "longitude": "-122.2602002", "place_id": "ChIJAZiYgyF8hYARhIvcIaXj9Z8", "google_status": "OK", "match_status": "matched" }, "geometry": { "type": "Point", "coordinates": [ -122.2602002, 37.8759146 ] } },
{ "type": "Feature", "properties": { "company_business_name": "Shell", "address": "Durant Ave", "city": "Berkeley", "state_abbreviation": "CA", "zip_code": "94704", "primary_naics": "45712003", "primary_sic": "554101", "industry_description": "Service Stations-Gasoline & Oil, Grocers-Retail", "affiliated_orgs": "NA", "brands": "Shell", "headquarters_name": "Shell Oil Products Co LLC", "location_confidence": "High", "naics_industry_sector": "Retail Trade", "business_category": "Branch", "square_footage": "1500 - 2499", "employee_count": "3", "sales_volume": "3047000", "corporate_parent_name": "NA", "query": "Shell, Durant Ave, Berkeley, CA, 94704", "formatted_address": "2200 Durant Ave, Berkeley, CA 94704, United States", "latitude": "37.8666811", "longitude": "-122.2656201", "place_id": "ChIJN84fq4J-hYARsFh3LbBDd28", "google_status": "OK", "match_status": "matched" }, "geometry": { "type": "Point", "coordinates": [ -122.2656201, 37.8666811 ] } },
{ "type": "Feature", "properties": { "company_business_name": "Spanish Table", "address": "San Pablo Ave", "city": "Berkeley", "state_abbreviation": "CA", "zip_code": "94702", "primary_naics": "72251117", "primary_sic": "581208", "industry_description": "Restaurants, Grocers-Retail", "affiliated_orgs": "NA", "brands": "NA", "headquarters_name": "NA", "location_confidence": "High", "naics_industry_sector": "Accommodation & Food Services", "business_category": "Independent", "square_footage": "40000 - 99999", "employee_count": "100", "sales_volume": "5924000", "corporate_parent_name": "NA", "query": "Spanish Table, San Pablo Ave, Berkeley, CA, 94702", "formatted_address": "1814 San Pablo Ave, Berkeley, CA 94702, United States", "latitude": "37.8709929", "longitude": "-122.292942", "place_id": "ChIJ43IrcMF-hYAR4Dt95ZjAhVw", "google_status": "OK", "match_status": "matched" }, "geometry": { "type": "Point", "coordinates": [ -122.292942, 37.8709929 ] } },
{ "type": "Feature", "properties": { "company_business_name": "Star Grocery", "address": "Claremont Ave", "city": "Berkeley", "state_abbreviation": "CA", "zip_code": "94705", "primary_naics": "44511003", "primary_sic": "541105", "industry_description": "Grocers-Retail", "affiliated_orgs": "NA", "brands": "NA", "headquarters_name": "NA", "location_confidence": "Medium", "naics_industry_sector": "Retail Trade", "business_category": "Independent", "square_footage": "5000 - 9999", "employee_count": "12", "sales_volume": "3308000", "corporate_parent_name": "NA", "query": "Star Grocery, Claremont Ave, Berkeley, CA, 94705", "formatted_address": "3068 Claremont Ave, Berkeley, CA 94705, United States", "latitude": "37.8547665", "longitude": "-122.2481551", "place_id": "ChIJEY2bzMh9hYAR4sBW4BfrFa4", "google_status": "OK", "match_status": "matched" }, "geometry": { "type": "Point", "coordinates": [ -122.2481551, 37.8547665 ] } },
{ "type": "Feature", "properties": { "company_business_name": "Target", "address": "Shattuck Ave", "city": "Berkeley", "state_abbreviation": "CA", "zip_code": "94704", "primary_naics": "45511001", "primary_sic": "531102", "industry_description": "Department Stores, Baby Accessories, Clothing-Retail, Bedding, Furniture-Dealers-Retail, Kitchen Accessories, Home Accessories & Furnishings, Appliances-Household-Small-Dealers, Video Games, Electronic Equipment & Supplies-Retail, Records Tapes & Compact Discs-Retail, Video Tapes Discs & Cassettes, Exercise Equipment-Retail, Toys-Retail, Wedding Party Gifts, Pet Supplies & Foods-Retail, Cosmetics & Perfumes-Retail, Grocers-Retail, Pharmacies", "affiliated_orgs": "NA", "brands": "NA", "headquarters_name": "Target Stores Inc", "location_confidence": "High", "naics_industry_sector": "Retail Trade", "business_category": "Branch", "square_footage": "100000+", "employee_count": "129", "sales_volume": "25091000", "corporate_parent_name": "Target", "query": "Target, Shattuck Ave, Berkeley, CA, 94704", "formatted_address": "2187 Shattuck Ave., Berkeley, CA 94704, United States", "latitude": "37.8696588", "longitude": "-122.2676042", "place_id": "ChIJM_EpsZ1-hYAREb0GctwNhCE", "google_status": "OK", "match_status": "matched" }, "geometry": { "type": "Point", "coordinates": [ -122.2676042, 37.8696588 ] } },
{ "type": "Feature", "properties": { "company_business_name": "Third Culture Bakery Berkeley", "address": "8th St", "city": "Berkeley", "state_abbreviation": "CA", "zip_code": "94710", "primary_naics": "31181102", "primary_sic": "546102", "industry_description": "Bakers-Retail, Grocers-Retail", "affiliated_orgs": "NA", "brands": "NA", "headquarters_name": "NA", "location_confidence": "High", "naics_industry_sector": "Manufacturing", "business_category": "Independent", "square_footage": "1 - 1499", "employee_count": "26", "sales_volume": "1879000", "corporate_parent_name": "NA", "query": "Third Culture Bakery Berkeley, 8th St, Berkeley, CA, 94710", "formatted_address": "2701 Eighth St, Berkeley, CA 94710, United States", "latitude": "37.8569603", "longitude": "-122.2917118", "place_id": "ChIJy_LqU91-hYARrF2Z8bMXT-w", "google_status": "OK", "match_status": "matched" }, "geometry": { "type": "Point", "coordinates": [ -122.2917118, 37.8569603 ] } },
{ "type": "Feature", "properties": { "company_business_name": "Three Stone Hearth", "address": "University Ave", "city": "Berkeley", "state_abbreviation": "CA", "zip_code": "94703", "primary_naics": "72251117", "primary_sic": "581208", "industry_description": "Restaurants, Foods-Carry Out, Grocers-Ethnic Foods", "affiliated_orgs": "NA", "brands": "NA", "headquarters_name": "NA", "location_confidence": "High", "naics_industry_sector": "Accommodation & Food Services", "business_category": "Independent", "square_footage": "1 - 1499", "employee_count": "6", "sales_volume": "356000", "corporate_parent_name": "NA", "query": "Three Stone Hearth, University Ave, Berkeley, CA, 94703", "formatted_address": "1581 University Ave, Berkeley, CA 94703, United States", "latitude": "37.8708281", "longitude": "-122.2806891", "place_id": "ChIJ1cW1PpZ-hYARgRBrR6NelFU", "google_status": "OK", "match_status": "matched" }, "geometry": { "type": "Point", "coordinates": [ -122.2806891, 37.8708281 ] } },
{ "type": "Feature", "properties": { "company_business_name": "Tokyo Fish Market", "address": "San Pablo Ave", "city": "Albany", "state_abbreviation": "CA", "zip_code": "94706", "primary_naics": "42442005", "primary_sic": "514101", "industry_description": "Food Products (Whls), Seafood-Retail, Meat-Retail, Grocers-Retail", "affiliated_orgs": "NA", "brands": "NA", "headquarters_name": "NA", "location_confidence": "High", "naics_industry_sector": "Wholesale Trade", "business_category": "Independent", "square_footage": "20000 - 39999", "employee_count": "20", "sales_volume": "36377000", "corporate_parent_name": "NA", "query": "Tokyo Fish Market, San Pablo Ave, Albany, CA, 94706", "formatted_address": "1220 San Pablo Ave, Berkeley, CA 94706, United States", "latitude": "37.8815083", "longitude": "-122.296629", "place_id": "ChIJe5vmK8x-hYAR1SsWEyDDzjg", "google_status": "OK", "match_status": "matched" }, "geometry": { "type": "Point", "coordinates": [ -122.296629, 37.8815083 ] } },
{ "type": "Feature", "properties": { "company_business_name": "Trader Joe's", "address": "University Ave", "city": "Berkeley", "state_abbreviation": "CA", "zip_code": "94703", "primary_naics": "44511003", "primary_sic": "541105", "industry_description": "Grocers-Retail, Wines-Retail, Grocers-Ethnic Foods", "affiliated_orgs": "NA", "brands": "NA", "headquarters_name": "Trader Joe's", "location_confidence": "Medium", "naics_industry_sector": "Retail Trade", "business_category": "Branch", "square_footage": "10000 - 19999", "employee_count": "100", "sales_volume": "27561000", "corporate_parent_name": "Aldi", "query": "Trader Joe's, University Ave, Berkeley, CA, 94703", "formatted_address": "1885 University Ave, Berkeley, CA 94703, United States", "latitude": "37.871714", "longitude": "-122.273191", "place_id": "ChIJiZU6HZl-hYARndMsDjwIF0Y", "google_status": "OK", "match_status": "matched" }, "geometry": { "type": "Point", "coordinates": [ -122.273191, 37.871714 ] } },
{ "type": "Feature", "properties": { "company_business_name": "Viks Holding Inc", "address": "7 Th St", "city": "Berkeley", "state_abbreviation": "CA", "zip_code": "94710", "primary_naics": "44511006", "primary_sic": "541107", "industry_description": "Grocers-Ethnic Foods", "affiliated_orgs": "NA", "brands": "NA", "headquarters_name": "NA", "location_confidence": "Medium", "naics_industry_sector": "Retail Trade", "business_category": "Independent", "square_footage": "NA", "employee_count": "12", "sales_volume": "NA", "corporate_parent_name": "NA", "query": "Viks Holding Inc, 7 Th St, Berkeley, CA, 94710", "formatted_address": "1321 Seventh St, Berkeley, CA 94710, United States", "latitude": "37.8790853", "longitude": "-122.2999672", "place_id": "ChIJ0cPo3NF-hYARcDs4AxrzVBQ", "google_status": "OK", "match_status": "matched" }, "geometry": { "type": "Point", "coordinates": [ -122.2999672, 37.8790853 ] } },
{ "type": "Feature", "properties": { "company_business_name": "Viks Market", "address": "4th St", "city": "Berkeley", "state_abbreviation": "CA", "zip_code": "94710", "primary_naics": "44511003", "primary_sic": "541105", "industry_description": "Grocers-Retail", "affiliated_orgs": "NA", "brands": "NA", "headquarters_name": "NA", "location_confidence": "High", "naics_industry_sector": "Retail Trade", "business_category": "Independent", "square_footage": "2500 - 4999", "employee_count": "4", "sales_volume": "1103000", "corporate_parent_name": "NA", "query": "Viks Market, 4th St, Berkeley, CA, 94710", "formatted_address": "2380 Fourth St, Berkeley, CA 94710, United States", "latitude": "37.8615321", "longitude": "-122.2980395", "place_id": "ChIJZYozPYd_hYARnMdsgI11cEw", "google_status": "OK", "match_status": "matched" }, "geometry": { "type": "Point", "coordinates": [ -122.2980395, 37.8615321 ] } },
{ "type": "Feature", "properties": { "company_business_name": "Whole Foods Market", "address": "Gilman St", "city": "Berkeley", "state_abbreviation": "CA", "zip_code": "94710", "primary_naics": "44511003", "primary_sic": "541105", "industry_description": "Grocers-Retail, Alternative Fuels, Organic Foods & Services, Florists-Retail, Vitamin & Food Supplements, Electric Charging Station", "affiliated_orgs": "NA", "brands": "NA", "headquarters_name": "Whole Foods Market, Inc", "location_confidence": "High", "naics_industry_sector": "Retail Trade", "business_category": "Branch", "square_footage": "20000 - 39999", "employee_count": "37", "sales_volume": "10198000", "corporate_parent_name": "Amazon.com", "query": "Whole Foods Market, Gilman St, Berkeley, CA, 94710", "formatted_address": "1025 Gilman St, Berkeley, CA 94710, United States", "latitude": "37.8806625", "longitude": "-122.2974445", "place_id": "ChIJ_bDndc5-hYAR-gZy-pVksC0", "google_status": "OK", "match_status": "matched" }, "geometry": { "type": "Point", "coordinates": [ -122.2974445, 37.8806625 ] } },
{ "type": "Feature", "properties": { "company_business_name": "Whole Foods Market", "address": "Telegraph Ave", "city": "Berkeley", "state_abbreviation": "CA", "zip_code": "94705", "primary_naics": "44511003", "primary_sic": "541105", "industry_description": "Grocers-Retail, Meat-Retail, Alternative Fuels, Organic Foods & Services, Florists-Retail, Vitamin & Food Supplements, Electric Charging Station", "affiliated_orgs": "NA", "brands": "NA", "headquarters_name": "Whole Foods Market, Inc", "location_confidence": "High", "naics_industry_sector": "Retail Trade", "business_category": "Branch", "square_footage": "20000 - 39999", "employee_count": "220", "sales_volume": "60633000", "corporate_parent_name": "Amazon.com", "query": "Whole Foods Market, Telegraph Ave, Berkeley, CA, 94705", "formatted_address": "3000 Telegraph Ave, Berkeley, CA 94705, United States", "latitude": "37.8556066", "longitude": "-122.2602487", "place_id": "ChIJh18Bd9R9hYARs_JG-G0td7A", "google_status": "OK", "match_status": "matched" }, "geometry": { "type": "Point", "coordinates": [ -122.2602487, 37.8556066 ] } }
]
}
